{
  "type": "FeatureCollection",
  "features": [
    {
      "type": "Feature",
      "properties": {
        "norad_id": 34540,
        "name": "IRIDIUM 33 DEB",
        "group": "iridium-33-debris",
        "lat": -74.57693506630177,
        "lon": 141.8324904298913,
        "alt_km": 651.770586402311,
        "timestamp": "2025-12-11T05:00:26.693476+00:00",
        "meta_object_name": "IRIDIUM 33 DEB",
        "meta_object_id": "1997-051JH",
        "meta_epoch": "2025-12-10T09:02:54.464064",
        "meta_mean_motion": 14.75237983,
        "meta_eccentricity": 0.00160091,
        "meta_inclination": 86.3107,
        "meta_ra_of_asc_node": 308.6869,
        "meta_arg_of_pericenter": 167.5274,
        "meta_mean_anomaly": 353.4924,
        "meta_ephemeris_type": 0,
        "meta_classification_type": "U",
        "meta_norad_cat_id": 34540,
        "meta_element_set_no": 999,
        "meta_rev_at_epoch": 88986,
        "meta_bstar": 0.0024707638,
        "meta_mean_motion_dot": 0.00016789,
        "meta_mean_motion_ddot": 0,
        "tle_line1": "1 34540U 97051JH  25344.37701926  .00016789  00000+0  24708-2 0  9994",
        "tle_line2": "2 34540  86.3107 308.6869 0016009 167.5274 353.4924 14.75237983889869"
      },
      "geometry": {
        "type": "Point",
        "coordinates": [
          141.8324904298913,
          -74.57693506630177
        ]
      }
    },
    {
      "type": "Feature",
      "properties": {
        "norad_id": 34648,
        "name": "IRIDIUM 33 DEB",
        "group": "iridium-33-debris",
        "lat": 34.8289953247795,
        "lon": -74.9183773030441,
        "alt_km": 852.9723195783617,
        "timestamp": "2025-12-11T05:00:26.693486+00:00",
        "meta_object_name": "IRIDIUM 33 DEB",
        "meta_object_id": "1997-051JZ",
        "meta_epoch": "2025-12-10T13:31:51.923424",
        "meta_mean_motion": 14.11387502,
        "meta_eccentricity": 0.0183418,
        "meta_inclination": 86.3907,
        "meta_ra_of_asc_node": 282.8249,
        "meta_arg_of_pericenter": 305.6711,
        "meta_mean_anomaly": 52.7515,
        "meta_ephemeris_type": 0,
        "meta_classification_type": "U",
        "meta_norad_cat_id": 34648,
        "meta_element_set_no": 999,
        "meta_rev_at_epoch": 84930,
        "meta_bstar": 0.012723,
        "meta_mean_motion_dot": 0.00027053,
        "meta_mean_motion_ddot": 0,
        "tle_line1": "1 34648U 97051JZ  25344.56379541  .00027053  00000+0  12723-1 0  9997",
        "tle_line2": "2 34648  86.3907 282.8249 0183418 305.6711  52.7515 14.11387502849304"
      },
      "geometry": {
        "type": "Point",
        "coordinates": [
          -74.9183773030441,
          34.8289953247795
        ]
      }
    },
    {
      "type": "Feature",
      "properties": {
        "norad_id": 34651,
        "name": "IRIDIUM 33 DEB",
        "group": "iridium-33-debris",
        "lat": 12.035631141306512,
        "lon": 142.022623487488,
        "alt_km": 904.9371401634235,
        "timestamp": "2025-12-11T05:00:26.693496+00:00",
        "meta_object_name": "IRIDIUM 33 DEB",
        "meta_object_id": "1997-051KC",
        "meta_epoch": "2025-12-10T20:31:39.361152",
        "meta_mean_motion": 14.25764503,
        "meta_eccentricity": 0.01420953,
        "meta_inclination": 86.2836,
        "meta_ra_of_asc_node": 141.3789,
        "meta_arg_of_pericenter": 209.9439,
        "meta_mean_anomaly": 149.3571,
        "meta_ephemeris_type": 0,
        "meta_classification_type": "U",
        "meta_norad_cat_id": 34651,
        "meta_element_set_no": 999,
        "meta_rev_at_epoch": 85869,
        "meta_bstar": 0.0051973334,
        "meta_mean_motion_dot": 0.00013755,
        "meta_mean_motion_ddot": 0,
        "tle_line1": "1 34651U 97051KC  25344.85531668  .00013755  00000+0  51973-2 0  9998",
        "tle_line2": "2 34651  86.2836 141.3789 0142095 209.9439 149.3571 14.25764503858697"
      },
      "geometry": {
        "type": "Point",
        "coordinates": [
          142.022623487488,
          12.035631141306512
        ]
      }
    },
    {
      "type": "Feature",
      "properties": {
        "norad_id": 34652,
        "name": "IRIDIUM 33 DEB",
        "group": "iridium-33-debris",
        "lat": -43.00049645878993,
        "lon": 164.1134220524765,
        "alt_km": 690.4824446806988,
        "timestamp": "2025-12-11T05:00:26.693506+00:00",
        "meta_object_name": "IRIDIUM 33 DEB",
        "meta_object_id": "1997-051KD",
        "meta_epoch": "2025-12-09T11:37:22.959264",
        "meta_mean_motion": 14.62008914,
        "meta_eccentricity": 0.00262076,
        "meta_inclination": 86.3314,
        "meta_ra_of_asc_node": 341.4507,
        "meta_arg_of_pericenter": 310.1115,
        "meta_mean_anomaly": 203.3524,
        "meta_ephemeris_type": 0,
        "meta_classification_type": "U",
        "meta_norad_cat_id": 34652,
        "meta_element_set_no": 999,
        "meta_rev_at_epoch": 88436,
        "meta_bstar": 0.0015009226,
        "meta_mean_motion_dot": 7.584e-05,
        "meta_mean_motion_ddot": 0,
        "tle_line1": "1 34652U 97051KD  25343.48429351  .00007584  00000+0  15009-2 0  9995",
        "tle_line2": "2 34652  86.3314 341.4507 0026207 310.1115 203.3524 14.62008914884363"
      },
      "geometry": {
        "type": "Point",
        "coordinates": [
          164.1134220524765,
          -43.00049645878993
        ]
      }
    },
    {
      "type": "Feature",
      "properties": {
        "norad_id": 34690,
        "name": "IRIDIUM 33 DEB",
        "group": "iridium-33-debris",
        "lat": 55.19005350005239,
        "lon": -147.57038159429956,
        "alt_km": 704.0065515247006,
        "timestamp": "2025-12-11T05:00:26.693516+00:00",
        "meta_object_name": "IRIDIUM 33 DEB",
        "meta_object_id": "1997-051KM",
        "meta_epoch": "2025-12-10T14:17:14.834976",
        "meta_mean_motion": 14.55083084,
        "meta_eccentricity": 0.0011101,
        "meta_inclination": 86.378,
        "meta_ra_of_asc_node": 37.9232,
        "meta_arg_of_pericenter": 36.03,
        "meta_mean_anomaly": 117.6753,
        "meta_ephemeris_type": 0,
        "meta_classification_type": "U",
        "meta_norad_cat_id": 34690,
        "meta_element_set_no": 999,
        "meta_rev_at_epoch": 88063,
        "meta_bstar": 0.00066726,
        "meta_mean_motion_dot": 2.9e-05,
        "meta_mean_motion_ddot": 0,
        "tle_line1": "1 34690U 97051KM  25344.59531059  .00002900  00000+0  66726-3 0  9999",
        "tle_line2": "2 34690  86.3780  37.9232 0011101  36.0300 117.6753 14.55083084880631"
      },
      "geometry": {
        "type": "Point",
        "coordinates": [
          -147.57038159429956,
          55.19005350005239
        ]
      }
    },
    {
      "type": "Feature",
      "properties": {
        "norad_id": 34693,
        "name": "IRIDIUM 33 DEB",
        "group": "iridium-33-debris",
        "lat": 46.374603815694776,
        "lon": 120.69837190566184,
        "alt_km": 478.1492527797609,
        "timestamp": "2025-12-11T05:00:26.693526+00:00",
        "meta_object_name": "IRIDIUM 33 DEB",
        "meta_object_id": "1997-051KQ",
        "meta_epoch": "2025-12-10T08:38:30.910272",
        "meta_mean_motion": 15.27015384,
        "meta_eccentricity": 0.00144202,
        "meta_inclination": 86.3054,
        "meta_ra_of_asc_node": 305.0067,
        "meta_arg_of_pericenter": 56.9182,
        "meta_mean_anomaly": 94.3145,
        "meta_ephemeris_type": 0,
        "meta_classification_type": "U",
        "meta_norad_cat_id": 34693,
        "meta_element_set_no": 999,
        "meta_rev_at_epoch": 88878,
        "meta_bstar": 0.0067186448,
        "meta_mean_motion_dot": 0.00182624,
        "meta_mean_motion_ddot": 0,
        "tle_line1": "1 34693U 97051KQ  25344.36007998  .00182624  00000+0  67186-2 0  9999",
        "tle_line2": "2 34693  86.3054 305.0067 0014420  56.9182  94.3145 15.27015384888787"
      },
      "geometry": {
        "type": "Point",
        "coordinates": [
          120.69837190566184,
          46.374603815694776
        ]
      }
    },
    {
      "type": "Feature",
      "properties": {
        "norad_id": 34696,
        "name": "IRIDIUM 33 DEB",
        "group": "iridium-33-debris",
        "lat": -28.64836789711725,
        "lon": -149.67633969861623,
        "alt_km": 640.6659274613603,
        "timestamp": "2025-12-11T05:00:26.693536+00:00",
        "meta_object_name": "IRIDIUM 33 DEB",
        "meta_object_id": "1997-051KT",
        "meta_epoch": "2025-12-10T13:59:57.596064",
        "meta_mean_motion": 14.64908761,
        "meta_eccentricity": 0.0074196,
        "meta_inclination": 86.1846,
        "meta_ra_of_asc_node": 28.5251,
        "meta_arg_of_pericenter": 174.7781,
        "meta_mean_anomaly": 337.5874,
        "meta_ephemeris_type": 0,
        "meta_classification_type": "U",
        "meta_norad_cat_id": 34696,
        "meta_element_set_no": 999,
        "meta_rev_at_epoch": 86641,
        "meta_bstar": 0.0079045,
        "meta_mean_motion_dot": 0.00044251,
        "meta_mean_motion_ddot": 0,
        "tle_line1": "1 34696U 97051KT  25344.58330551  .00044251  00000+0  79045-2 0  9990",
        "tle_line2": "2 34696  86.1846  28.5251 0074196 174.7781 337.5874 14.64908761866416"
      },
      "geometry": {
        "type": "Point",
        "coordinates": [
          -149.67633969861623,
          -28.64836789711725
        ]
      }
    }
  ]
}